{
  "type": "FeatureCollection",
  "features": [
    {
      "type": "Feature",
      "properties": {
        "norad_id": 66884,
        "name": "STARLINK-36057",
        "group": "last-30-days",
        "lat": -31.099931180061727,
        "lon": -15.03424082604345,
        "alt_km": 385.7994174351379,
        "timestamp": "2025-12-25T03:55:54.954710+00:00",
        "meta_object_name": "STARLINK-36057",
        "meta_object_id": "2025-283G",
        "meta_epoch": "2025-12-24T20:00:01.000224",
        "meta_mean_motion": 15.63637948,
        "meta_eccentricity": 0.0001376,
        "meta_inclination": 53.1599,
        "meta_ra_of_asc_node": 13.468,
        "meta_arg_of_pericenter": 92.4371,
        "meta_mean_anomaly": 166.9098,
        "meta_ephemeris_type": 0,
        "meta_classification_type": "U",
        "meta_norad_cat_id": 66884,
        "meta_element_set_no": 999,
        "meta_rev_at_epoch": 437,
        "meta_bstar": -0.023746,
        "meta_mean_motion_dot": -0.01982181,
        "meta_mean_motion_ddot": 0,
        "tle_line1": "1 66884U 25283G   25358.83334491 -.01982181  00000+0 -23746-1 0  9994",
        "tle_line2": "2 66884  53.1599  13.4680 0001376  92.4371 166.9098 15.63637948  4376"
      },
      "geometry": {
        "type": "Point",
        "coordinates": [
          -15.03424082604345,
          -31.099931180061727
        ]
      }
    },
    {
      "type": "Feature",
      "properties": {
        "norad_id": 66885,
        "name": "STARLINK-35954",
        "group": "last-30-days",
        "lat": -32.45618794812356,
        "lon": -16.619477783439848,
        "alt_km": 385.954974707779,
        "timestamp": "2025-12-25T03:55:54.954722+00:00",
        "meta_object_name": "STARLINK-35954",
        "meta_object_id": "2025-283H",
        "meta_epoch": "2025-12-24T20:00:01.000224",
        "meta_mean_motion": 15.63630959,
        "meta_eccentricity": 0.0001437,
        "meta_inclination": 53.16,
        "meta_ra_of_asc_node": 13.4718,
        "meta_arg_of_pericenter": 94.3379,
        "meta_mean_anomaly": 163.0967,
        "meta_ephemeris_type": 0,
        "meta_classification_type": "U",
        "meta_norad_cat_id": 66885,
        "meta_element_set_no": 999,
        "meta_rev_at_epoch": 437,
        "meta_bstar": -0.023639,
        "meta_mean_motion_dot": -0.01973868,
        "meta_mean_motion_ddot": 0,
        "tle_line1": "1 66885U 25283H   25358.83334491 -.01973868  00000+0 -23639-1 0  9998",
        "tle_line2": "2 66885  53.1600  13.4718 0001437  94.3379 163.0967 15.63630959  4377"
      },
      "geometry": {
        "type": "Point",
        "coordinates": [
          -16.619477783439848,
          -32.45618794812356
        ]
      }
    },
    {
      "type": "Feature",
      "properties": {
        "norad_id": 66886,
        "name": "STARLINK-35900",
        "group": "last-30-days",
        "lat": -29.72512125142514,
        "lon": -13.49515655884538,
        "alt_km": 385.74100531955446,
        "timestamp": "2025-12-25T03:55:54.954732+00:00",
        "meta_object_name": "STARLINK-35900",
        "meta_object_id": "2025-283J",
        "meta_epoch": "2025-12-24T20:00:01.000224",
        "meta_mean_motion": 15.63636835,
        "meta_eccentricity": 0.0001481,
        "meta_inclination": 53.1601,
        "meta_ra_of_asc_node": 13.4632,
        "meta_arg_of_pericenter": 92.55,
        "meta_mean_anomaly": 168.7152,
        "meta_ephemeris_type": 0,
        "meta_classification_type": "U",
        "meta_norad_cat_id": 66886,
        "meta_element_set_no": 999,
        "meta_rev_at_epoch": 437,
        "meta_bstar": -0.023741,
        "meta_mean_motion_dot": -0.01981767,
        "meta_mean_motion_ddot": 0,
        "tle_line1": "1 66886U 25283J   25358.83334491 -.01981767  00000+0 -23741-1 0  9990",
        "tle_line2": "2 66886  53.1601  13.4632 0001481  92.5500 168.7152 15.63636835  4376"
      },
      "geometry": {
        "type": "Point",
        "coordinates": [
          -13.49515655884538,
          -29.72512125142514
        ]
      }
    },
    {
      "type": "Feature",
      "properties": {
        "norad_id": 66887,
        "name": "STARLINK-35925",
        "group": "last-30-days",
        "lat": -28.332228698484954,
        "lon": -11.996289893272563,
        "alt_km": 385.5965923554668,
        "timestamp": "2025-12-25T03:55:54.954744+00:00",
        "meta_object_name": "STARLINK-35925",
        "meta_object_id": "2025-283K",
        "meta_epoch": "2025-12-24T20:00:01.000224",
        "meta_mean_motion": 15.63633174,
        "meta_eccentricity": 0.0001347,
        "meta_inclination": 53.1602,
        "meta_ra_of_asc_node": 13.4596,
        "meta_arg_of_pericenter": 97.1051,
        "meta_mean_anomaly": 166.0745,
        "meta_ephemeris_type": 0,
        "meta_classification_type": "U",
        "meta_norad_cat_id": 66887,
        "meta_element_set_no": 999,
        "meta_rev_at_epoch": 437,
        "meta_bstar": -0.023605,
        "meta_mean_motion_dot": -0.01971475,
        "meta_mean_motion_ddot": 0,
        "tle_line1": "1 66887U 25283K   25358.83334491 -.01971475  00000+0 -23605-1 0  9995",
        "tle_line2": "2 66887  53.1602  13.4596 0001347  97.1051 166.0745 15.63633174  4372"
      },
      "geometry": {
        "type": "Point",
        "coordinates": [
          -11.996289893272563,
          -28.332228698484954
        ]
      }
    },
    {
      "type": "Feature",
      "properties": {
        "norad_id": 66888,
        "name": "STARLINK-35919",
        "group": "last-30-days",
        "lat": -26.923910248250582,
        "lon": -10.537983139822229,
        "alt_km": 385.70670742786297,
        "timestamp": "2025-12-25T03:55:54.954754+00:00",
        "meta_object_name": "STARLINK-35919",
        "meta_object_id": "2025-283L",
        "meta_epoch": "2025-12-24T20:00:01.000224",
        "meta_mean_motion": 15.63595672,
        "meta_eccentricity": 0.0001666,
        "meta_inclination": 53.1602,
        "meta_ra_of_asc_node": 13.4552,
        "meta_arg_of_pericenter": 101.2322,
        "meta_mean_anomaly": 163.8928,
        "meta_ephemeris_type": 0,
        "meta_classification_type": "U",
        "meta_norad_cat_id": 66888,
        "meta_element_set_no": 999,
        "meta_rev_at_epoch": 437,
        "meta_bstar": -0.02316,
        "meta_mean_motion_dot": -0.01936371,
        "meta_mean_motion_ddot": 0,
        "tle_line1": "1 66888U 25283L   25358.83334491 -.01936371  00000+0 -23160-1 0  9998",
        "tle_line2": "2 66888  53.1602  13.4552 0001666 101.2322 163.8928 15.63595672  4375"
      },
      "geometry": {
        "type": "Point",
        "coordinates": [
          -10.537983139822229,
          -26.923910248250582
        ]
      }
    },
    {
      "type": "Feature",
      "properties": {
        "norad_id": 66889,
        "name": "STARLINK-35852",
        "group": "last-30-days",
        "lat": -25.499644202327794,
        "lon": -9.114807886005526,
        "alt_km": 385.3075307079562,
        "timestamp": "2025-12-25T03:55:54.954764+00:00",
        "meta_object_name": "STARLINK-35852",
        "meta_object_id": "2025-283M",
        "meta_epoch": "2025-12-24T20:00:01.000224",
        "meta_mean_motion": 15.63628889,
        "meta_eccentricity": 0.0001307,
        "meta_inclination": 53.1602,
        "meta_ra_of_asc_node": 13.4508,
        "meta_arg_of_pericenter": 94.8743,
        "meta_mean_anomaly": 172.141,
        "meta_ephemeris_type": 0,
        "meta_classification_type": "U",
        "meta_norad_cat_id": 66889,
        "meta_element_set_no": 999,
        "meta_rev_at_epoch": 437,
        "meta_bstar": -0.023529,
        "meta_mean_motion_dot": -0.01965541,
        "meta_mean_motion_ddot": 0,
        "tle_line1": "1 66889U 25283M   25358.83334491 -.01965541  00000+0 -23529-1 0  9999",
        "tle_line2": "2 66889  53.1602  13.4508 0001307  94.8743 172.1410 15.63628889  4379"
      },
      "geometry": {
        "type": "Point",
        "coordinates": [
          -9.114807886005526,
          -25.499644202327794
        ]
      }
    },
    {
      "type": "Feature",
      "properties": {
        "norad_id": 66890,
        "name": "STARLINK-35885",
        "group": "last-30-days",
        "lat": -24.062207062412423,
        "lon": -7.724890419535983,
        "alt_km": 385.1605750922199,
        "timestamp": "2025-12-25T03:55:54.954774+00:00",
        "meta_object_name": "STARLINK-35885",
        "meta_object_id": "2025-283N",
        "meta_epoch": "2025-12-24T20:00:01.000224",
        "meta_mean_motion": 15.63630572,
        "meta_eccentricity": 0.0001276,
        "meta_inclination": 53.1601,
        "meta_ra_of_asc_node": 13.4471,
        "meta_arg_of_pericenter": 94.8401,
        "meta_mean_anomaly": 174.0906,
        "meta_ephemeris_type": 0,
        "meta_classification_type": "U",
        "meta_norad_cat_id": 66890,
        "meta_element_set_no": 999,
        "meta_rev_at_epoch": 437,
        "meta_bstar": -0.02355,
        "meta_mean_motion_dot": -0.01967169,
        "meta_mean_motion_ddot": 0,
        "tle_line1": "1 66890U 25283N   25358.83334491 -.01967169  00000+0 -23550-1 0  9993",
        "tle_line2": "2 66890  53.1601  13.4471 0001276  94.8401 174.0906 15.63630572  4378"
      },
      "geometry": {
        "type": "Point",
        "coordinates": [
          -7.724890419535983,
          -24.062207062412423
        ]
      }
    }
  ]
}